CORVUS BC4              
1 43767U 18099K   26068.65923737  .00005714  00000+0  33980-3 0  9990
2 43767  97.4206 114.5457 0008046 356.5821   3.5354 15.11615710397368
STARLINK-4173           
1 53285U 22086AV  26068.59278382 -.00000174  00000+0  71780-5 0  9997
2 53285  53.2169 184.5569 0001227  90.3635 269.7498 15.08843600201178
